{"type":"FeatureCollection","features":[{"type":"Feature","geometry":{"type":"Point","coordinates":[72.83176,19.05706]},"properties":{"id":1}},{"type":"Feature","geometry":{"type":"Point","coordinates":[72.83683,19.06894]},"properties":{"id":2}},{"type":"Feature","geometry":{"type":"Point","coordinates":[72.82788,19.07888]},"properties":{"id":3}},{"type":"Feature","geometry":{"type":"Point","coordinates":[72.84167,19.07505]},"properties":{"id":4}},{"type":"Feature","geometry":{"type":"Point","coordinates":[72.84975,19.08554]},"properties":{"id":5}},{"type":"Feature","geometry":{"type":"Point","coordinates":[72.84271,19.09246]},"properties":{"id":6}},{"type":"Feature","geometry":{"type":"Point","coordinates":[72.85044,19.10054]},"properties":{"id":7}},{"type":"Feature","geometry":{"type":"Point","coordinates":[72.8396,19.08912]},"properties":{"id":8}},{"type":"Feature","geometry":{"type":"Point","coordinates":[72.83349,19.1108]},"properties":{"id":9}},{"type":"Feature","geometry":{"type":"Point","coordinates":[72.83971,19.12533]},"properties":{"id":10}},{"type":"Feature","geometry":{"type":"Point","coordinates":[72.84133,19.10723]},"properties":{"id":11}},{"type":"Feature","geometry":{"type":"Point","coordinates":[72.84865,19.12499]},"properties":{"id":12}},{"type":"Feature","geometry":{"type":"Point","coordinates":[72.8456,19.13133]},"properties":{"id":13}},{"type":"Feature","geometry":{"type":"Point","coordinates":[72.89277,19.05083]},"properties":{"id":14}},{"type":"Feature","geometry":{"type":"Point","coordinates":[72.90222,19.0589]},"properties":{"id":15}},{"type":"Feature","geometry":{"type":"Point","coordinates":[72.90142,19.06144]},"properties":{"id":16}},{"type":"Feature","geometry":{"type":"Point","coordinates":[72.91814,19.06294]},"properties":{"id":17}},{"type":"Feature","geometry":{"type":"Point","coordinates":[72.89692,19.06663]},"properties":{"id":18}},{"type":"Feature","geometry":{"type":"Point","coordinates":[72.88861,19.07885]},"properties":{"id":19}},{"type":"Feature","geometry":{"type":"Point","coordinates":[72.89865,19.08105]},"properties":{"id":20}},{"type":"Feature","geometry":{"type":"Point","coordinates":[72.91376,19.08197]},"properties":{"id":21}},{"type":"Feature","geometry":{"type":"Point","coordinates":[72.88077,19.06732]},"properties":{"id":22}},{"type":"Feature","geometry":{"type":"Point","coordinates":[72.88193,19.07862]},"properties":{"id":23}},{"type":"Feature","geometry":{"type":"Point","coordinates":[72.86439,19.08128]},"properties":{"id":24}},{"type":"Feature","geometry":{"type":"Point","coordinates":[72.88158,19.10792]},"properties":{"id":25}},{"type":"Feature","geometry":{"type":"Point","coordinates":[72.8998,19.0867]},"properties":{"id":26}},{"type":"Feature","geometry":{"type":"Point","coordinates":[72.93417,19.11553]},"properties":{"id":27}},{"type":"Feature","geometry":{"type":"Point","coordinates":[72.94052,19.13814]},"properties":{"id":28}},{"type":"Feature","geometry":{"type":"Point","coordinates":[72.94005,19.14333]},"properties":{"id":29}},{"type":"Feature","geometry":{"type":"Point","coordinates":[72.82945,19.13548]},"properties":{"id":30}},{"type":"Feature","geometry":{"type":"Point","coordinates":[72.83464,19.14483]},"properties":{"id":31}},{"type":"Feature","geometry":{"type":"Point","coordinates":[72.83983,19.15255]},"properties":{"id":32}},{"type":"Feature","geometry":{"type":"Point","coordinates":[72.83637,19.17412]},"properties":{"id":33}},{"type":"Feature","geometry":{"type":"Point","coordinates":[72.85459,19.16974]},"properties":{"id":34}},{"type":"Feature","geometry":{"type":"Point","coordinates":[72.84444,19.16985]},"properties":{"id":35}},{"type":"Feature","geometry":{"type":"Point","coordinates":[72.84779,19.18092]},"properties":{"id":36}},{"type":"Feature","geometry":{"type":"Point","coordinates":[72.8509,19.18312]},"properties":{"id":37}},{"type":"Feature","geometry":{"type":"Point","coordinates":[72.84767,19.18911]},"properties":{"id":38}},{"type":"Feature","geometry":{"type":"Point","coordinates":[72.84871,19.19257]},"properties":{"id":39}},{"type":"Feature","geometry":{"type":"Point","coordinates":[72.85205,19.20122]},"properties":{"id":40}},{"type":"Feature","geometry":{"type":"Point","coordinates":[72.83591,19.18531]},"properties":{"id":41}},{"type":"Feature","geometry":{"type":"Point","coordinates":[72.81653,19.20122]},"properties":{"id":42}},{"type":"Feature","geometry":{"type":"Point","coordinates":[72.83948,19.20584]},"properties":{"id":43}},{"type":"Feature","geometry":{"type":"Point","coordinates":[72.9419,19.14967]},"properties":{"id":44}},{"type":"Feature","geometry":{"type":"Point","coordinates":[72.93902,19.16259]},"properties":{"id":45}},{"type":"Feature","geometry":{"type":"Point","coordinates":[72.87524,19.10965]},"properties":{"id":46}},{"type":"Feature","geometry":{"type":"Point","coordinates":[72.87143,19.11265]},"properties":{"id":47}},{"type":"Feature","geometry":{"type":"Point","coordinates":[72.8569,19.14436]},"properties":{"id":48}},{"type":"Feature","geometry":{"type":"Point","coordinates":[72.85655,19.22175]},"properties":{"id":49}},{"type":"Feature","geometry":{"type":"Point","coordinates":[72.85736,19.2274]},"properties":{"id":50}},{"type":"Feature","geometry":{"type":"Point","coordinates":[72.86339,19.23559]},"properties":{"id":51}},{"type":"Feature","geometry":{"type":"Point","coordinates":[72.86266,19.24459]},"properties":{"id":52}},{"type":"Feature","geometry":{"type":"Point","coordinates":[72.87178,19.24493]},"properties":{"id":53}},{"type":"Feature","geometry":{"type":"Point","coordinates":[72.86785,19.25209]},"properties":{"id":54}},{"type":"Feature","geometry":{"type":"Point","coordinates":[72.85667,19.25647]},"properties":{"id":55}}]}